[ {"name": "STARLINK-1817", "line1": "1 46715U 20073AX  26169.75002315  .00219844  28998-4  68020-3 0  9999", "line2": "2 46715  53.0413  75.4888 0004404 209.4396 224.9990 15.91302719  5970"}, {"name": "STARLINK-1821", "line1": "1 46718U 20073BA  26169.13095758  .00078417  00000+0  12643-2 0  9994", "line2": "2 46718  53.0428 108.2438 0003534 103.5917 256.5485 15.52251653312878"}, {"name": "STARLINK-1826", "line1": "1 46723U 20073BF  26169.75002315  .00075271  00000+0  35055-3 0  9993", "line2": "2 46723  53.0411  40.3160 0006220 174.3005 209.2286 15.82674810  5963"}, {"name": "STARLINK-1828", "line1": "1 46725U 20073BH  26169.52841845  .00071068  00000+0  56783-3 0  9990", "line2": "2 46725  53.0474 103.3025 0006149  42.3883 317.7608 15.70463624312973"}, {"name": "STARLINK-1830", "line1": "1 46727U 20073BK  26168.91629632  .00117438  00000+0  66287-3 0  9994", "line2": "2 46727  53.0356  51.0365 0002979 226.1733 133.9041 15.78318740313654"}, {"name": "STARLINK-1892", "line1": "1 46743U 20074E   26169.25936204  .00086748  00000+0  68828-3 0  9999", "line2": "2 46743  53.0378 162.8906 0009254  24.1555 335.9894 15.70519660312788"}, {"name": "STARLINK-1905", "line1": "1 46746U 20074H   26169.75002315  .00362394  64063-4  84875-3 0  9992", "line2": "2 46746  53.0314 139.7326 0002065 171.6470 111.8162 15.96448663  6036"}, {"name": "STARLINK-1922", "line1": "1 46753U 20074Q   26169.48577108  .00495465  12185-3  81627-3 0  9992", "line2": "2 46753  53.0320 139.6203 0002707 184.0381 176.0628 16.02589933313121"}, {"name": "STARLINK-1928", "line1": "1 46758U 20074V   26169.41726865  .00760268  33386-3  72316-3 0  9993", "line2": "2 46758  53.0297 138.4302 0001376 220.3909 139.7023 16.11328900313138"}, {"name": "STARLINK-1835", "line1": "1 46782U 20074AV  26169.21171666  .00100311  00000+0  55918-3 0  9990", "line2": "2 46782  53.0384 139.3277 0001328 121.8335 238.2815 15.78666091313107"}, {"name": "STARLINK-1882", "line1": "1 46784U 20074AX  26169.75002315  .00372051  66208-4  92239-3 0  9991", "line2": "2 46784  53.0389 131.7726 0003711 141.4729 251.8604 15.95390572  5979"}, {"name": "STARLINK-1893", "line1": "1 46786U 20074AZ  26169.60508582  .00087587  00000+0  65282-3 0  9992", "line2": "2 46786  53.0424 132.9164 0001960  99.2655 260.8584 15.72055978313233"}, {"name": "STARLINK-1931", "line1": "1 46790U 20074BD  26169.46237003  .00735633  28655-3  95100-3 0  9992", "line2": "2 46790  53.0296 138.2019 0002372 195.2616 164.8345 16.06579087313132"}, {"name": "STARLINK-1942", "line1": "1 46794U 20074BH  26169.69302480  .00083227  00000+0  62625-3 0  9994", "line2": "2 46794  53.0372 164.2943 0001935  84.4683 275.6555 15.71851346312802"}, {"name": "STARLINK-1944", "line1": "1 46796U 20074BK  26169.75002315  .00375546  68930-4  82927-3 0  9993", "line2": "2 46796  53.0319 125.8819 0002599 195.2869 200.6904 15.97508625  6032"}, {"name": "STARLINK-1777", "line1": "1 47122U 20088A   26169.65539858  .00066169  00000+0  54860-3 0  9990", "line2": "2 47122  53.0448 150.7981 0002573 359.2022   0.8990 15.69619799307865"}, {"name": "STARLINK-1812", "line1": "1 47126U 20088E   26169.49241095  .00020696  00000+0  92846-3 0  9990", "line2": "2 47126  53.0792 199.0485 0002611  24.1608 335.9510 15.21184793307181"}, {"name": "STARLINK-1845", "line1": "1 47135U 20088P   26169.21415005  .00083430  00000+0  59007-3 0  9991", "line2": "2 47135  53.0437 144.3549 0003655   6.1987 353.9075 15.73304940307912"}, {"name": "STARLINK-1856", "line1": "1 47143U 20088X   26169.75002315  .00033094  00000+0  26322-3 0  9990", "line2": "2 47143  53.0440 140.5653 0005168  64.3101 351.3563 15.70920032  5949"}, {"name": "STARLINK-1871", "line1": "1 47157U 20088AM  26169.52286186  .00032533  00000+0  89093-3 0  9991", "line2": "2 47157  53.1553 186.1625 0005370  11.6727 348.4400 15.37047695307387"}, {"name": "STARLINK-1873", "line1": "1 47158U 20088AN  26169.75002315  .00133009  00000+0  61410-3 0  9990", "line2": "2 47158  53.0402 130.2375 0002158 156.0718  14.7680 15.82653078  6014"}, {"name": "STARLINK-1876", "line1": "1 47161U 20088AR  26169.75002315  .00364580  64118-4  89294-3 0  9999", "line2": "2 47161  53.0373 127.4753 0004102  57.6458 154.5248 15.95614987  5877"}, {"name": "STARLINK-1888", "line1": "1 47171U 20088BB  26169.35643918  .00069128  00000+0  58059-3 0  9996", "line2": "2 47171  53.0452 149.9013 0004861  34.6515 325.4817 15.69279291307855"}, {"name": "STARLINK-1912", "line1": "1 47178U 20088BJ  26169.75002315  .00050101  00000+0  29895-3 0  9994", "line2": "2 47178  53.0451 144.6533 0001309 106.4693 342.8676 15.77422951  6000"}, {"name": "STARLINK-1913", "line1": "1 47179U 20088BK  26169.46977264  .00044364  00000+0  12818-2 0  9997", "line2": "2 47179  53.1572 197.6853 0005253  24.0707 336.0541 15.35228316307218"}, {"name": "STARLINK-2017", "line1": "1 47351U 21005C   26169.67684708  .00002359  00000+0  87749-4 0  9995", "line2": "2 47351  53.1582 263.8544 0001173  90.2068 269.9068 15.31704773299193"}, {"name": "STARLINK-2034", "line1": "1 47352U 21005D   26169.60221779  .00001955  00000+0  74729-4 0  9999", "line2": "2 47352  53.1597 303.2669 0001008  69.8328 290.2781 15.31702480298635"}, {"name": "STARLINK-2045", "line1": "1 47353U 21005E   26169.52392010  .00008471  00000+0  28409-3 0  9991", "line2": "2 47353  53.1555 251.5609 0001119  90.0697 270.0433 15.31736326299353"}, {"name": "STARLINK-2046", "line1": "1 47354U 21005F   26169.60434279  .00001147  00000+0  48726-4 0  9993", "line2": "2 47354  53.1615 274.5088 0001270  82.3488 277.7658 15.31696322299036"}, {"name": "STARLINK-2047", "line1": "1 47355U 21005G   26168.58986369  .00000424  00000+0  25415-4 0  9999", "line2": "2 47355  53.1591 266.2456 0001055  73.1597 286.9520 15.31696796299054"}]