OBJECT_NAME,OBJECT_ID,EPOCH,MEAN_MOTION,ECCENTRICITY,INCLINATION,RA_OF_ASC_NODE,ARG_OF_PERICENTER,MEAN_ANOMALY,EPHEMERIS_TYPE,CLASSIFICATION_TYPE,NORAD_CAT_ID,ELEMENT_SET_NO,REV_AT_EPOCH,BSTAR,MEAN_MOTION_DOT,MEAN_MOTION_DDOT
STARLINK-1817,2020-073AX,2026-06-18T18:00:02.000160,15.91302719,.0004404,53.0413,75.4888,209.4396,224.9990,0,U,46715,999,597,.6802E-3,.219844E-2,.28998E-4
STARLINK-1821,2020-073BA,2026-06-18T03:08:34.734912,15.52251653,.0003534,53.0428,108.2438,103.5917,256.5485,0,U,46718,999,31287,.12643E-2,.78417E-3,0
STARLINK-1826,2020-073BF,2026-06-18T18:00:02.000160,15.82674810,.000622,53.0411,40.3160,174.3005,209.2286,0,U,46723,999,596,.35055E-3,.75271E-3,0
STARLINK-1828,2020-073BH,2026-06-18T12:40:55.354080,15.70463624,.0006149,53.0474,103.3025,42.3883,317.7608,0,U,46725,999,31297,.56783E-3,.71068E-3,0
STARLINK-1830,2020-073BK,2026-06-17T21:59:28.002048,15.78318740,.00029796,53.0356,51.0365,226.1733,133.9041,0,U,46727,999,31365,.66286668E-3,.117438E-2,0
STARLINK-1892,2020-074E,2026-06-18T06:13:28.880256,15.70519660,.0009254,53.0378,162.8906,24.1555,335.9894,0,U,46743,999,31278,.68828E-3,.86748E-3,0
STARLINK-1905,2020-074H,2026-06-18T18:00:02.000160,15.96448663,.0002065,53.0314,139.7326,171.6470,111.8162,0,U,46746,999,603,.84875E-3,.362394E-2,.64063E-4
STARLINK-1922,2020-074Q,2026-06-18T11:39:30.621312,16.02589933,.0002707,53.0320,139.6203,184.0381,176.0628,0,U,46753,999,31312,.81627E-3,.495465E-2,.12185E-3
STARLINK-1928,2020-074V,2026-06-18T10:00:52.011360,16.11328900,.0001376,53.0297,138.4302,220.3909,139.7023,0,U,46758,999,31313,.72316E-3,.760268E-2,.33386E-3
STARLINK-1835,2020-074AV,2026-06-18T05:04:52.319424,15.78666091,.0001328,53.0384,139.3277,121.8335,238.2815,0,U,46782,999,31310,.55918E-3,.100311E-2,0
STARLINK-1882,2020-074AX,2026-06-18T18:00:02.000160,15.95390572,.0003711,53.0389,131.7726,141.4729,251.8604,0,U,46784,999,597,.92239E-3,.372051E-2,.66208E-4
STARLINK-1893,2020-074AZ,2026-06-18T14:31:19.414848,15.72055978,.000196,53.0424,132.9164,99.2655,260.8584,0,U,46786,999,31323,.65282E-3,.87587E-3,0
STARLINK-1931,2020-074BD,2026-06-18T11:05:48.770592,16.06579087,.0002372,53.0296,138.2019,195.2616,164.8345,0,U,46790,999,31313,.951E-3,.735633E-2,.28655E-3
STARLINK-1942,2020-074BH,2026-06-18T16:37:57.342720,15.71851346,.0001935,53.0372,164.2943,84.4683,275.6555,0,U,46794,999,31280,.62625E-3,.83227E-3,0
STARLINK-1944,2020-074BK,2026-06-18T18:00:02.000160,15.97508625,.0002599,53.0319,125.8819,195.2869,200.6904,0,U,46796,999,603,.82927E-3,.375546E-2,.6893E-4
STARLINK-1777,2020-088A,2026-06-18T15:43:46.437312,15.69619799,.0002573,53.0448,150.7981,359.2022,0.8990,0,U,47122,999,30786,.5486E-3,.66169E-3,0
STARLINK-1812,2020-088E,2026-06-18T11:49:04.306080,15.21184793,.0002611,53.0792,199.0485,24.1608,335.9510,0,U,47126,999,30718,.92846E-3,.20696E-3,0
STARLINK-1845,2020-088P,2026-06-18T05:08:22.564320,15.73304940,.0003655,53.0437,144.3549,6.1987,353.9075,0,U,47135,999,30791,.59007E-3,.8343E-3,0
STARLINK-1856,2020-088X,2026-06-18T18:00:02.000160,15.70920032,.0005168,53.0440,140.5653,64.3101,351.3563,0,U,47143,999,594,.26322E-3,.33094E-3,0
STARLINK-1871,2020-088AM,2026-06-18T12:32:55.264704,15.37047695,.000537,53.1553,186.1625,11.6727,348.4400,0,U,47157,999,30738,.89093E-3,.32533E-3,0
STARLINK-1873,2020-088AN,2026-06-18T18:00:02.000160,15.82653078,.0002158,53.0402,130.2375,156.0718,14.7680,0,U,47158,999,601,.6141E-3,.133009E-2,0
STARLINK-1876,2020-088AR,2026-06-18T18:00:02.000160,15.95614987,.0004102,53.0373,127.4753,57.6458,154.5248,0,U,47161,999,587,.89294E-3,.36458E-2,.64118E-4
STARLINK-1888,2020-088BB,2026-06-18T08:33:16.345152,15.69279291,.0004861,53.0452,149.9013,34.6515,325.4817,0,U,47171,999,30785,.58059E-3,.69128E-3,0
STARLINK-1912,2020-088BJ,2026-06-18T18:00:02.000160,15.77422951,.0001309,53.0451,144.6533,106.4693,342.8676,0,U,47178,999,600,.29895E-3,.50101E-3,0
STARLINK-1913,2020-088BK,2026-06-18T11:16:28.356096,15.35228316,.0005253,53.1572,197.6853,24.0707,336.0541,0,U,47179,999,30721,.12818E-2,.44364E-3,0
STARLINK-2017,2021-005C,2026-06-18T16:14:39.587712,15.31704773,.0001173,53.1582,263.8544,90.2068,269.9068,0,U,47351,999,29919,.87749E-4,.2359E-4,0
STARLINK-2034,2021-005D,2026-06-18T14:27:11.617056,15.31702480,.0001008,53.1597,303.2669,69.8328,290.2781,0,U,47352,999,29863,.74729E-4,.1955E-4,0
STARLINK-2045,2021-005E,2026-06-18T12:34:26.696640,15.31736326,.0001119,53.1555,251.5609,90.0697,270.0433,0,U,47353,999,29935,.28409E-3,.8471E-4,0
STARLINK-2046,2021-005F,2026-06-18T14:30:15.217056,15.31696322,.000127,53.1615,274.5088,82.3488,277.7658,0,U,47354,999,29903,.48726E-4,.1147E-4,0
STARLINK-2047,2021-005G,2026-06-17T14:09:24.222816,15.31696796,.0001055,53.1591,266.2456,73.1597,286.9520,0,U,47355,999,29905,.25415E-4,.424E-5,0
